#dP2018  2 25  0  0  0.00000000      96 __u+U ITR00 FIT  IAC
## 1990      0.00000000   900.00000000 58174 0.0000000000000
+   88   C01C02C03C04C05C06C07C08C09C10C11C12C13C14E01E02E03
+        E04E05E07E08E09E11E12E14E18E19E24E26E30G01G02G03G04
+        G05G06G07G08G09G10G11G12G13G14G15G16G17G19G20G21G22
+        G23G24G25G26G27G28G29G30G31G32J01J02J03R01R02R03R04
+        R05R06R07R08R09R10R11R13R14R15R16R17R18R19R20R21R22
+        R23R24R26  0  0  0  0  0  0  0  0  0  0  0  0  0  0
++         0  0  0  0  0  0  0  0  0  0  0  0  0  0  0  0  0
++         0  0  0  0  0  0  0  0  0  0  0  0  0  0  0  0  0
++         0  0  0  0  0  0  0  0  0  0  0  0  0  0  0  0  0
++         0  0  0  0  0  0  0  0  0  0  0  0  0  0  0  0  0
++         0  0  0  0  0  0  0  0  0  0  0  0  0  0  0  0  0
++         0  0  0  0  0  0  0  0  0  0  0  0  0  0  0  0  0
%c M  cc GPS ccc cccc cccc cccc cccc ccccc ccccc ccccc ccccc
%c cc cc ccc ccc cccc cccc cccc cccc ccccc ccccc ccccc ccccc
%f  0.0000000  0.000000000  0.00000000000  0.000000000000000
%f  0.0000000  0.000000000  0.00000000000  0.000000000000000
%i    0    0    0    0      0      0      0      0         0
%i    0    0    0    0      0      0      0      0         0
/*                                                          
/*   RSA / INFORMATION & ANALYSIS CENTER (IAC) OF MCC       
/*   ULTRA-RAPID DETERMINATION                              
/* PCV:IGS14_1984 OL/AL:FES2004  NONE     YN ORB:CoN CLK:CoN
*  2018 02 25 20 15  0.00000000
PC01 -32253.175018  27131.311788   -988.814226    412.929582
PC02   4403.449668  41922.681936   1180.149629   -252.312732
PC03 -14730.507472  39537.743324    166.020348    -23.492499
PC04 -39597.687081  14420.520150   -316.513810     17.670387
PC05  21825.148229  36067.762991   1534.289841   -152.241839
PC06 -11464.500253  38234.784010  14322.182701   -680.384174
PC07 -12308.004187  22260.705490 -33511.648970   -324.638327
PC08 -24806.149433  27747.869002  19653.904312    196.787395
PC09  -3488.747929  42188.773033    678.290614   -368.723570
PC10   2669.180209  28184.755728 -31043.241965    -42.612693
PC11    -10.608402 -20816.371194 -18558.866798   -405.792481
PC12  15043.012402 -23449.920223  -2234.762649    385.454856
PC13  -9712.771685  28526.334403  29428.144148   -222.301794
PC14  -8669.983855 -26138.516585  -4259.113393    240.765669
PE01 -27521.239548  -9802.269746  -4756.832941   -285.134519
PE02  27528.950806   9796.406454   4768.639182      5.801189
PE03  16906.649236   8056.031134 -22920.535804     -3.277634
PE04 -14346.596815  14351.277751  21553.129448     16.838837
PE05   9567.191399  25822.784729 -10860.237270    314.944570
PE07   3350.453072 -28432.476558  -7522.633085     77.837748
PE08  14083.269208 -14455.424961 -21654.029496   6634.869193
PE09  -3072.607312  28431.841981   7625.057944   6864.640175
PE11 -11756.962221  21635.026434  16449.633807   1847.002539
PE12 -24861.287946  16019.839705  -1454.820916   3588.055822
PE14  -4528.899242  25249.808617   7809.707052   6625.036419
PE18  -7872.526476 -21639.709389 -19936.879331   6400.333298
PE19 -16521.085936 -10128.920610  22372.691577     19.770437
PE24  -1572.480220  16878.717509 -24280.279853   6842.994240
PE26  -7846.717513 -14751.926756 -24422.812648   6229.059246
PE30  20606.516337  -4995.001223  20649.576670   6047.761913
PG01  -7156.515796 -13907.126232 -21639.799329    -30.867280
PG02 -16647.365472  14572.522163  15049.562410    190.098707
PG03 -11475.209606 -22733.097894  -7656.029453     16.811871
PG04  16907.211957   -299.784260  20317.793335     40.257878
PG05  -5673.707911  15931.577209  20331.321808    -13.430291
PG06 -25253.000788   7058.707634   4327.977384    413.931575
PG07 -21885.934637  -6866.753458  13969.540740    231.405998
PG08   3894.661426 -25119.839462  -7393.827694    -92.456903
PG09 -11837.159567 -11049.773557  21014.384143    503.399861
PG10  19390.157197   4288.104447 -17675.606770    164.180061
PG11  -3701.621193 -16971.542437 -20676.541451   -736.776256
PG12   8894.116150  23339.201532  -9505.354483    348.373150
PG13 -12233.812383  23580.341192   -266.890462    -95.604171
PG14  17268.489163 -14958.297103 -13119.567708    -94.440374
PG15  -1160.555725  25154.341018  -8015.643826   -356.804374
PG16   6314.246698 -14999.063380  20745.466063     31.499236
PG17 -16831.292634   6687.576493 -18997.290799   -120.297185
PG19 -17843.758990  13388.012921 -14850.017958   -454.632891
PG20  12532.061155  21720.757427   8684.836991    501.793883
PG21  23342.302122   4577.802619  12640.716098   -426.187182
PG22  -6238.588540 -21924.898567 -13377.096640   -303.995386
PG23  -4010.192859 -21270.422232  15370.370179   -218.837887
PG24   3807.766853  15216.433574 -21552.190244    -46.527069
PG25  17932.697179  19582.081139   2546.536189   -544.567023
PG26  14298.531010  -6455.918759  21441.848188   -237.584774
PG27  12370.514162 -22759.850989   5162.063498    368.222285
PG28 -18782.654899  -9306.543927 -15658.341694    692.035204
PG29   8054.475849  15036.585972  20352.955812    490.909753
PG30 -25904.971665  -1686.304780   5980.916347    100.217361
PG31  25220.611588  -7094.677563   5605.345733    139.258664
PG32  17005.065407  -6918.266376 -19141.195521   -531.072961
PJ01 -24860.302035  23778.277141  29502.417719    -87.749299
PJ02 -31963.291094  15231.352490 -18511.005551     -0.069439
PJ03 -22040.692312  31839.385755 -11956.417828    -16.267523
PR01   2931.144900 -19661.473033 -15994.369437     22.594136
PR02  -7134.230382 -24332.266640   2571.235402    297.071534
PR03 -12104.738034 -13455.761678  17991.240120    125.151572
PR04  -9816.185378   5705.533286  22855.725669    251.270603
PR05  -1982.017630  20743.829829  14696.328228   -254.510522
PR06   7905.831579  24032.721207  -3384.801853    127.727651
PR07  12103.882506  13192.854183 -18153.651830    -31.027514
PR08  10010.409065  -4983.897288 -22877.863580     38.328870
PR09  11765.707963  12961.733204 -18517.266689     46.096683
PR10  23595.356171   8935.905515  -3501.573744     19.116931
PR11  21362.118091   -419.517747  13915.757913    -22.666883
PR13 -12714.279879 -12508.220386  18214.487825     -7.858511
PR14 -23574.635318  -9008.895450   3737.061396     24.991720
PR15 -22940.767421  -1783.673577 -10889.494782     -6.852699
PR16  -7050.421364   9233.919704 -22722.054499     86.482409
PR17 -12858.201086  -1856.180698 -21930.425920    112.143293
PR18 -19821.009075  11788.383606 -10954.137431    186.170186
PR19 -16151.723851  18644.511869   6512.155409    -45.688639
PR20  -1959.315745  14541.516836  20894.371926   -328.575953
PR21  13012.855496   1545.868148  21895.460061     27.656444
PR22  19896.387312 -12828.872604   9331.483393    -21.815793
PR23  13798.555834 -19082.347698  -9795.921518    138.403668
PR24    996.861106 -14171.475583 -21197.806410   -162.932068
PR26  -1824.558040  14710.943040  20769.152016 999999.999999
EOF
